{
  "type": "FeatureCollection",
  "features": [
    {
      "type": "Feature",
      "properties": {
        "norad_id": 26766,
        "name": "INTELSAT 10 (IS-10)",
        "group": "intelsat",
        "lat": 5.448480192359388,
        "lon": -157.96394672372398,
        "alt_km": 36116.48015974082,
        "timestamp": "2025-12-03T20:47:57.884286+00:00",
        "meta_object_name": "INTELSAT 10 (IS-10)",
        "meta_object_id": "2001-019A",
        "meta_epoch": "2025-12-03T11:53:38.524992",
        "meta_mean_motion": 0.99078102,
        "meta_eccentricity": 0.0007771,
        "meta_inclination": 8.6063,
        "meta_ra_of_asc_node": 61.2471,
        "meta_arg_of_pericenter": 218.7876,
        "meta_mean_anomaly": 149.4282,
        "meta_ephemeris_type": 0,
        "meta_classification_type": "U",
        "meta_norad_cat_id": 26766,
        "meta_element_set_no": 999,
        "meta_rev_at_epoch": 4364,
        "meta_bstar": 0,
        "meta_mean_motion_dot": -1.56e-06,
        "meta_mean_motion_ddot": 0,
        "tle_line1": "1 26766U 01019A   25337.49558478 -.00000156  00000+0  00000+0 0  9999",
        "tle_line2": "2 26766   8.6063  61.2471 0007771 218.7876 149.4282  0.99078102 43647"
      },
      "geometry": {
        "type": "Point",
        "coordinates": [
          -157.96394672372398,
          5.448480192359388
        ]
      }
    },
    {
      "type": "Feature",
      "properties": {
        "norad_id": 26900,
        "name": "INTELSAT 902 (IS-902)",
        "group": "intelsat",
        "lat": -5.548072917486265,
        "lon": -25.200574844217382,
        "alt_km": 35786.007294786315,
        "timestamp": "2025-12-03T20:47:57.884312+00:00",
        "meta_object_name": "INTELSAT 902 (IS-902)",
        "meta_object_id": "2001-039A",
        "meta_epoch": "2025-12-01T16:59:59.311968",
        "meta_mean_motion": 1.00270327,
        "meta_eccentricity": 0.00043097,
        "meta_inclination": 5.6187,
        "meta_ra_of_asc_node": 74.2002,
        "meta_arg_of_pericenter": 175.119,
        "meta_mean_anomaly": 26.3816,
        "meta_ephemeris_type": 0,
        "meta_classification_type": "U",
        "meta_norad_cat_id": 26900,
        "meta_element_set_no": 999,
        "meta_rev_at_epoch": 8871,
        "meta_bstar": 0,
        "meta_mean_motion_dot": -2.63e-06,
        "meta_mean_motion_ddot": 0,
        "tle_line1": "1 26900U 01039A   25335.70832537 -.00000263  00000+0  00000+0 0  9993",
        "tle_line2": "2 26900   5.6187  74.2002 0004309 175.1190  26.3816  1.00270327 88713"
      },
      "geometry": {
        "type": "Point",
        "coordinates": [
          -25.200574844217382,
          -5.548072917486265
        ]
      }
    },
    {
      "type": "Feature",
      "properties": {
        "norad_id": 27380,
        "name": "INTELSAT 904 (IS-904)",
        "group": "intelsat",
        "lat": -6.2832360008653705,
        "lon": -6.48129271806466,
        "alt_km": 35786.63824502475,
        "timestamp": "2025-12-03T20:47:57.884327+00:00",
        "meta_object_name": "INTELSAT 904 (IS-904)",
        "meta_object_id": "2002-007A",
        "meta_epoch": "2025-12-03T03:19:57.879840",
        "meta_mean_motion": 1.00269372,
        "meta_eccentricity": 0.00015814,
        "meta_inclination": 6.4293,
        "meta_ra_of_asc_node": 71.5412,
        "meta_arg_of_pericenter": 200.7188,
        "meta_mean_anomaly": 178.4698,
        "meta_ephemeris_type": 0,
        "meta_classification_type": "U",
        "meta_norad_cat_id": 27380,
        "meta_element_set_no": 999,
        "meta_rev_at_epoch": 4980,
        "meta_bstar": 0,
        "meta_mean_motion_dot": -2.1e-06,
        "meta_mean_motion_ddot": 0,
        "tle_line1": "1 27380U 02007A   25337.13886435 -.00000210  00000+0  00000+0 0  9999",
        "tle_line2": "2 27380   6.4293  71.5412 0001581 200.7188 178.4698  1.00269372 49801"
      },
      "geometry": {
        "type": "Point",
        "coordinates": [
          -6.48129271806466,
          -6.2832360008653705
        ]
      }
    },
    {
      "type": "Feature",
      "properties": {
        "norad_id": 27426,
        "name": "DIRECTV 5 (TEMPO 1)",
        "group": "intelsat",
        "lat": -1.3041576862364561,
        "lon": -85.24084186040317,
        "alt_km": 35770.57928244957,
        "timestamp": "2025-12-03T20:47:57.884341+00:00",
        "meta_object_name": "DIRECTV 5 (TEMPO 1)",
        "meta_object_id": "2002-023A",
        "meta_epoch": "2025-12-03T09:48:28.408032",
        "meta_mean_motion": 1.00271174,
        "meta_eccentricity": 0.0003776,
        "meta_inclination": 4.3765,
        "meta_ra_of_asc_node": 77.7618,
        "meta_arg_of_pericenter": 189.4718,
        "meta_mean_anomaly": 202.2592,
        "meta_ephemeris_type": 0,
        "meta_classification_type": "U",
        "meta_norad_cat_id": 27426,
        "meta_element_set_no": 999,
        "meta_rev_at_epoch": 8616,
        "meta_bstar": 0,
        "meta_mean_motion_dot": -4e-07,
        "meta_mean_motion_ddot": 0,
        "tle_line1": "1 27426U 02023A   25337.40866213 -.00000040  00000+0  00000+0 0  9991",
        "tle_line2": "2 27426   4.3765  77.7618 0003776 189.4718 202.2592  1.00271174 86161"
      },
      "geometry": {
        "type": "Point",
        "coordinates": [
          -85.24084186040317,
          -1.3041576862364561
        ]
      }
    },
    {
      "type": "Feature",
      "properties": {
        "norad_id": 27438,
        "name": "INTELSAT 905 (IS-905)",
        "group": "intelsat",
        "lat": 0.45557830815178124,
        "lon": -112.2392018927625,
        "alt_km": 35772.67019663685,
        "timestamp": "2025-12-03T20:47:57.884353+00:00",
        "meta_object_name": "INTELSAT 905 (IS-905)",
        "meta_object_id": "2002-027A",
        "meta_epoch": "2025-12-03T09:40:44.148864",
        "meta_mean_motion": 1.00273288,
        "meta_eccentricity": 0.000313,
        "meta_inclination": 6.2606,
        "meta_ra_of_asc_node": 72.1621,
        "meta_arg_of_pericenter": 189.1417,
        "meta_mean_anomaly": 179.1858,
        "meta_ephemeris_type": 0,
        "meta_classification_type": "U",
        "meta_norad_cat_id": 27438,
        "meta_element_set_no": 999,
        "meta_rev_at_epoch": 4940,
        "meta_bstar": 0,
        "meta_mean_motion_dot": 1.09e-06,
        "meta_mean_motion_ddot": 0,
        "tle_line1": "1 27438U 02027A   25337.40328876  .00000109  00000+0  00000+0 0  9991",
        "tle_line2": "2 27438   6.2606  72.1621 0003130 189.1417 179.1858  1.00273288 49400"
      },
      "geometry": {
        "type": "Point",
        "coordinates": [
          -112.2392018927625,
          0.45557830815178124
        ]
      }
    },
    {
      "type": "Feature",
      "properties": {
        "norad_id": 27445,
        "name": "GALAXY 3C (G-3C)",
        "group": "intelsat",
        "lat": -1.6099195777797806,
        "lon": -69.96223000642074,
        "alt_km": 35788.70153100685,
        "timestamp": "2025-12-03T20:47:57.884365+00:00",
        "meta_object_name": "GALAXY 3C (G-3C)",
        "meta_object_id": "2002-030A",
        "meta_epoch": "2025-12-03T09:52:50.491200",
        "meta_mean_motion": 1.00270115,
        "meta_eccentricity": 0.0001284,
        "meta_inclination": 3.2391,
        "meta_ra_of_asc_node": 80.6023,
        "meta_arg_of_pericenter": 98.3929,
        "meta_mean_anomaly": 306.8593,
        "meta_ephemeris_type": 0,
        "meta_classification_type": "U",
        "meta_norad_cat_id": 27445,
        "meta_element_set_no": 999,
        "meta_rev_at_epoch": 4453,
        "meta_bstar": 0,
        "meta_mean_motion_dot": -1.35e-06,
        "meta_mean_motion_ddot": 0,
        "tle_line1": "1 27445U 02030A   25337.41169550 -.00000135  00000+0  00000+0 0  9996",
        "tle_line2": "2 27445   3.2391  80.6023 0001284  98.3929 306.8593  1.00270115 44533"
      },
      "geometry": {
        "type": "Point",
        "coordinates": [
          -69.96223000642074,
          -1.6099195777797806
        ]
      }
    },
    {
      "type": "Feature",
      "properties": {
        "norad_id": 27513,
        "name": "INTELSAT 906 (IS-906)",
        "group": "intelsat",
        "lat": 1.2807485692393221,
        "lon": 89.00321899382745,
        "alt_km": 35811.419964863926,
        "timestamp": "2025-12-03T20:47:57.884377+00:00",
        "meta_object_name": "INTELSAT 906 (IS-906)",
        "meta_object_id": "2002-041A",
        "meta_epoch": "2025-12-03T08:55:25.991040",
        "meta_mean_motion": 1.00273124,
        "meta_eccentricity": 0.0006118,
        "meta_inclination": 5.3053,
        "meta_ra_of_asc_node": 75.3426,
        "meta_arg_of_pericenter": 192.3717,
        "meta_mean_anomaly": 2.7424,
        "meta_ephemeris_type": 0,
        "meta_classification_type": "U",
        "meta_norad_cat_id": 27513,
        "meta_element_set_no": 999,
        "meta_rev_at_epoch": 8506,
        "meta_bstar": 0,
        "meta_mean_motion_dot": 2.9e-07,
        "meta_mean_motion_ddot": 0,
        "tle_line1": "1 27513U 02041A   25337.37182860  .00000029  00000+0  00000+0 0  9999",
        "tle_line2": "2 27513   5.3053  75.3426 0006118 192.3717   2.7424  1.00273124 85067"
      },
      "geometry": {
        "type": "Point",
        "coordinates": [
          89.00321899382745,
          1.2807485692393221
        ]
      }
    }
  ]
}